0 IRS B3
1 23827U 96017A   13282.73927881  .00000107  00000-0  67989-4 0  8334
2 23827 098.5946 222.7666 0002931 356.0733 049.4433 14.22067359911016
0 IRS B3
1 23827U 96017A   13283.93466429  .00000126  00000-0  76568-4 0  8348
2 23827 098.5948 223.9316 0002859 352.2441 049.5120 14.22068097911188
0 IRS B3
1 23827U 96017A   13286.48141515  .00000104  00000-0  66456-4 0  8360
2 23827 098.5955 226.4136 0002717 344.2040 128.1203 14.22068689911546
0 IRS B3
1 23827U 96017A   13287.80659353  .00000150  00000-0  87195-4 0  8376
2 23827 098.5958 227.7052 0002641 339.2887 073.3736 14.22069297911738
0 IRS B3
1 23827U 96017A   13288.93888980  .00000151  00000-0  87710-4 0  8386
2 23827 098.5963 228.8088 0002608 334.3794 111.7326 14.22070141911890
0 IRS B3
1 23827U 96017A   13290.69345553  .00000171  00000-0  96826-4 0  8397
2 23827 098.5966 230.5191 0002534 327.8226 095.6193 14.22070669912149
0 IRS B3
1 23827U 96017A   13291.81716083  .00000189  00000-0  10500-3 0  8407
2 23827 098.5967 231.6146 0002482 323.6525 089.2891 14.22070817912307
0 IRS B3
1 23827U 96017A   13292.94067277  .00000199  00000-0  10954-3 0  8411
2 23827 098.5968 232.7099 0002424 319.4205 082.0322 14.22071379912462
0 IRS B3
1 23827U 96017A   13294.43711843  .00000175  00000-0  98506-4 0  8427
2 23827 098.5969 234.1689 0002378 313.3245 184.7781 14.22072414912672
0 IRS B3
1 23827U 96017A   13295.48728458  .00000195  00000-0  10736-3 0  8434
2 23827 098.5968 235.1927 0002335 309.2745 162.0677 14.22072752912824
